STARLINK-31749          
1 59631U 24082A   26068.21775102 -.00001582  00000+0 -47966-4 0  9990
2 59631  43.0051 142.1439 0001315 265.9053  94.1648 15.27576194104940
KUIPER-00226            
1 67785U 26030X   26068.62629313  .00046834  00000+0  15530-2 0  9998
2 67785  51.8814 220.1252 0017713  64.2781 296.0030 15.30655594  5078
